[{"OBJECT_NAME":"STARLINK-4621","OBJECT_ID":"2022-105AE","EPOCH":"2026-03-09T16:00:46.917216","MEAN_MOTION":15.01252403,"ECCENTRICITY":0.00033108,"INCLINATION":97.601,"RA_OF_ASC_NODE":310.1897,"ARG_OF_PERICENTER":33.3535,"MEAN_ANOMALY":326.7897,"EPHEMERIS_TYPE":0,"CLASSIFICATION_TYPE":"U","NORAD_CAT_ID":53676,"ELEMENT_SET_NO":999,"REV_AT_EPOCH":19323,"BSTAR":-7.6560656e-5,"MEAN_MOTION_DOT":-1.041e-5,"MEAN_MOTION_DDOT":0},{"OBJECT_NAME":"PICO-02A021","OBJECT_ID":"2024-149BY","EPOCH":"2026-03-09T03:41:37.126752","MEAN_MOTION":15.02201963,"ECCENTRICITY":0.00041954,"INCLINATION":97.6823,"RA_OF_ASC_NODE":147.908,"ARG_OF_PERICENTER":9.5557,"MEAN_ANOMALY":350.5747,"EPHEMERIS_TYPE":0,"CLASSIFICATION_TYPE":"U","NORAD_CAT_ID":60538,"ELEMENT_SET_NO":999,"REV_AT_EPOCH":8471,"BSTAR":0.00064833457,"MEAN_MOTION_DOT":8.488e-5,"MEAN_MOTION_DDOT":0}]
